[{"OBJECT_NAME":"STARLINK-34581","OBJECT_ID":"2025-144X","EPOCH":"2026-03-09T14:19:27.674112","MEAN_MOTION":15.30185599,"ECCENTRICITY":0.0001364,"INCLINATION":53.1583,"RA_OF_ASC_NODE":181.7583,"ARG_OF_PERICENTER":77.0417,"MEAN_ANOMALY":283.0736,"EPHEMERIS_TYPE":0,"CLASSIFICATION_TYPE":"U","NORAD_CAT_ID":64745,"ELEMENT_SET_NO":999,"REV_AT_EPOCH":3969,"BSTAR":0.000567,"MEAN_MOTION_DOT":0.00016463,"MEAN_MOTION_DDOT":0},{"OBJECT_NAME":"SPACEMOBILE-005 DEB","OBJECT_ID":"2024-163K","EPOCH":"2026-03-09T07:33:15.902496","MEAN_MOTION":15.31481997,"ECCENTRICITY":0.00072885,"INCLINATION":52.9762,"RA_OF_ASC_NODE":31.7924,"ARG_OF_PERICENTER":175.8731,"MEAN_ANOMALY":184.2329,"EPHEMERIS_TYPE":0,"CLASSIFICATION_TYPE":"U","NORAD_CAT_ID":62373,"ELEMENT_SET_NO":999,"REV_AT_EPOCH":8280,"BSTAR":0.00063853778,"MEAN_MOTION_DOT":0.00019381,"MEAN_MOTION_DDOT":0}]
